[{"OBJECT_NAME":"STARLINK-35224","OBJECT_ID":"2025-218W","EPOCH":"2026-03-09T15:12:31.020768","MEAN_MOTION":15.05674145,"ECCENTRICITY":0.0002074,"INCLINATION":97.6033,"RA_OF_ASC_NODE":292.935,"ARG_OF_PERICENTER":80.2611,"MEAN_ANOMALY":279.885,"EPHEMERIS_TYPE":0,"CLASSIFICATION_TYPE":"U","NORAD_CAT_ID":65811,"ELEMENT_SET_NO":999,"REV_AT_EPOCH":2496,"BSTAR":0.00047554,"MEAN_MOTION_DOT":6.812e-5,"MEAN_MOTION_DDOT":0},{"OBJECT_NAME":"IRIDIUM 33 DEB","OBJECT_ID":"1997-051ABJ","EPOCH":"2026-03-07T11:02:11.153184","MEAN_MOTION":15.04355632,"ECCENTRICITY":0.00105712,"INCLINATION":86.348,"RA_OF_ASC_NODE":321.5871,"ARG_OF_PERICENTER":86.7515,"MEAN_ANOMALY":38.318,"EPHEMERIS_TYPE":0,"CLASSIFICATION_TYPE":"U","NORAD_CAT_ID":40996,"ELEMENT_SET_NO":999,"REV_AT_EPOCH":63758,"BSTAR":0.0045408492,"MEAN_MOTION_DOT":0.00063892,"MEAN_MOTION_DDOT":0}]
